      2.10          N: GNSS NAV DATA                        RINEX VERSION / TYPE
fic2rin                                 07/01/2021 00:17:05 PGM / RUN BY / DATE
                                                            END OF HEADER
16 21  6 30 20  0  0.0-3.496962599456e-04-6.139089236967e-12 0.000000000000e+00
    3.200000000000e+01 6.281250000000e+00 4.354109937584e-09 1.306009392076e-01
    4.619359970093e-07 1.217780704610e-02 6.496906280518e-06 5.153714681625e+03
    3.312000000000e+05 6.332993507385e-08 2.050527404011e-01 2.309679985046e-07
    9.735339122351e-01 2.619687500000e+02 6.798146798901e-01-8.197127157534e-09
   -1.710785546799e-10 1.000000000000e+00 2.164000000000e+03 0.000000000000e+00
    2.400000000000e+00 0.000000000000e+00-1.024454832077e-08 3.200000000000e+01
    3.240000000000e+05 4.000000000000e+00
10 21  6 30 20  0  0.0-1.528467983007e-04-7.617018127348e-12 0.000000000000e+00
    2.300000000000e+01-5.587500000000e+01 4.693409785071e-09 1.288236352055e+00
   -2.762302756310e-06 6.708257249556e-03 5.340203642845e-06 5.153674432755e+03
    3.312000000000e+05-1.490116119385e-08-3.029173231852e+00 1.527369022369e-07
    9.699624449777e-01 2.834375000000e+02-2.569823912601e+00-8.340704566681e-09
   -1.857220217820e-10 1.000000000000e+00 2.164000000000e+03 0.000000000000e+00
    2.400000000000e+00 0.000000000000e+00 2.328306436539e-09 2.300000000000e+01
    3.240000000000e+05 4.000000000000e+00
 5 21  6 30 20  0  0.0-4.652002826333e-05-1.136868377216e-12 0.000000000000e+00
    8.600000000000e+01-5.190625000000e+01 4.916633368943e-09-3.441556357608e-01
   -2.628192305565e-06 6.158193224110e-03 4.922971129417e-06 5.153899625778e+03
    3.312000000000e+05-5.401670932770e-08-3.063595021315e+00 2.607703208923e-08
    9.570576481497e-01 2.800000000000e+02 9.199835940608e-01-8.433922735306e-09
   -1.507205638307e-10 1.000000000000e+00 2.164000000000e+03 0.000000000000e+00
    2.400000000000e+00 0.000000000000e+00-1.117587089539e-08 8.600000000000e+01
    3.240000000000e+05 4.000000000000e+00
15 21  6 30 20  0  0.0-1.387391239405e-04 2.614797267597e-12 0.000000000000e+00
    1.700000000000e+01-3.915625000000e+01 5.126999274385e-09-1.667384985346e+00
   -2.061948180199e-06 1.326919754501e-02 9.108334779739e-06 5.153637199402e+03
    3.312000000000e+05 3.036111593246e-07-2.096957664784e+00-1.676380634308e-08
    9.289694410889e-01 1.848750000000e+02 9.946965378348e-01-8.127838557100e-09
   -1.121475285376e-10 1.000000000000e+00 2.164000000000e+03 0.000000000000e+00
    2.400000000000e+00 0.000000000000e+00-1.071020960808e-08 1.700000000000e+01
    3.240000000000e+05 4.000000000000e+00
12 21  6 30 20  0  0.0-6.224820390344e-05-5.229594535194e-12 0.000000000000e+00
    5.500000000000e+01 1.812500000000e+00 4.249819879199e-09 1.939118355423e+00
    0.000000000000e+00 8.332957746461e-03 6.398186087608e-06 5.153714252472e+03
    3.312000000000e+05-1.490116119385e-08 1.863297296554e-01-1.937150955200e-07
    9.734749522478e-01 2.613750000000e+02 1.225740706758e+00-7.950688320939e-09
   -1.539349834385e-10 1.000000000000e+00 2.164000000000e+03 0.000000000000e+00
    2.400000000000e+00 0.000000000000e+00-1.257285475731e-08 5.500000000000e+01
    3.240000000000e+05 4.000000000000e+00
 9 21  6 30 20  0  0.0-3.535654395819e-04-1.705302565824e-12 0.000000000000e+00
    6.100000000000e+01-4.493750000000e+01 4.630550023852e-09-3.407530419148e-01
   -2.328306436539e-06 1.892172382213e-03 9.449198842049e-06 5.153758989334e+03
    3.312000000000e+05-6.332993507385e-08-1.996961540870e+00 5.587935447693e-09
    9.532134651669e-01 1.930937500000e+02 1.830061117346e+00-8.053549748387e-09
   -1.007184810433e-10 1.000000000000e+00 2.164000000000e+03 0.000000000000e+00
    2.400000000000e+00 0.000000000000e+00 1.396983861923e-09 6.100000000000e+01
    3.240000000000e+05 4.000000000000e+00
 8 21  6 30 20  0  0.0-2.707634121180e-05-1.477928890381e-12 0.000000000000e+00
    5.100000000000e+01 6.281250000000e+00 4.259820295757e-09-7.190220957107e-01
    3.278255462646e-07 6.354228476994e-03 8.815899491310e-06 5.153622030258e+03
    3.312000000000e+05 1.098960638046e-07 1.143982504583e+00-1.229345798492e-07
    9.669933152216e-01 2.086250000000e+02 5.953222969918e-02-8.021762710044e-09
   -7.321733551020e-11 1.000000000000e+00 2.164000000000e+03 0.000000000000e+00
    2.400000000000e+00 0.000000000000e+00 5.122274160385e-09 5.100000000000e+01
    3.240000000000e+05 4.000000000000e+00
 6 21  6 30 20  0  0.0 3.371294587851e-05 5.115907697473e-12 0.000000000000e+00
    9.000000000000e+01 2.396875000000e+01 4.158030341511e-09-2.784271196917e+00
    1.378357410431e-06 2.096000360325e-03 6.331130862236e-06 5.153792922974e+03
    3.312000000000e+05-6.891787052155e-08 2.211543211766e+00 6.332993507385e-08
    9.841376691242e-01 2.703750000000e+02-9.678720769455e-01-7.919972755798e-09
    2.785830326729e-10 1.000000000000e+00 2.164000000000e+03 0.000000000000e+00
    2.400000000000e+00 0.000000000000e+00 4.190951585770e-09 9.000000000000e+01
    3.240000000000e+05 4.000000000000e+00
14 21  6 30 20  0  0.0 5.808053538203e-05-8.526512829121e-12 0.000000000000e+00
    4.300000000000e+01 8.500000000000e+00 4.695909889210e-09 2.098212163850e+00
    3.781169652939e-07 8.493349887431e-04 5.874782800674e-06 5.153752222061e+03
    3.312000000000e+05-7.450580596924e-09 1.586727016063e-01-3.725290298462e-09
    9.569404684116e-01 2.626562500000e+02 2.891039347096e+00-8.205698943155e-09
   -1.514348792991e-10 1.000000000000e+00 2.164000000000e+03 0.000000000000e+00
    2.400000000000e+00 0.000000000000e+00-7.916241884232e-09 4.300000000000e+01
    3.240000000000e+05 4.000000000000e+00
13 21  6 30 20  0  0.0 1.516863703728e-04 5.002220859751e-12 0.000000000000e+00
    7.900000000000e+01-2.553125000000e+01 4.236962200768e-09-1.323144316009e+00
   -1.443549990654e-06 5.060355644673e-03 1.012533903122e-05 5.153683197021e+03
    3.312000000000e+05 1.545995473862e-07-1.847741191849e+00 8.381903171539e-08
    9.678802473430e-01 1.895937500000e+02 9.587529200446e-01-7.805325123121e-09
   -1.346484657919e-10 1.000000000000e+00 2.164000000000e+03 0.000000000000e+00
    2.400000000000e+00 0.000000000000e+00-1.117587089539e-08 7.900000000000e+01
    3.240000000000e+05 4.000000000000e+00
 7 21  6 30 20  0  0.0 1.913756132126e-04 9.208633855451e-12 0.000000000000e+00
    1.720000000000e+02 3.418750000000e+01 4.631621497055e-09 2.697021781051e+00
    1.627951860428e-06 1.513564621564e-02 8.350238204002e-06 5.153751081467e+03
    3.312000000000e+05 0.000000000000e+00-9.242305520380e-01-2.309679985046e-07
    9.513338348728e-01 2.111875000000e+02-2.322196815310e+00-7.857112994580e-09
    1.689356082747e-10 1.000000000000e+00 2.164000000000e+03 0.000000000000e+00
    3.400000000000e+00 0.000000000000e+00-1.117587089539e-08 1.720000000000e+02
    3.240000000000e+05 4.000000000000e+00
 4 21  6 30 20  0  0.0-2.013044431806e-04-9.094947017729e-13 0.000000000000e+00
    1.100000000000e+01-4.493750000000e+01 4.358752988129e-09-1.350404509974e+00
   -2.345070242882e-06 1.285377191380e-03 1.025386154652e-05 5.153730411530e+03
    3.312000000000e+05-2.793967723846e-08-1.945838810900e+00-8.195638656616e-08
    9.603050936817e-01 1.826562500000e+02-2.937957457401e+00-7.878899616366e-09
   -1.171477368163e-10 1.000000000000e+00 2.164000000000e+03 0.000000000000e+00
    2.400000000000e+00 0.000000000000e+00-4.190951585770e-09 5.230000000000e+02
    3.240000000000e+05 4.000000000000e+00
11 21  6 30 20  0  0.0 2.483371645212e-06 1.352873368887e-11 0.000000000000e+00
    2.300000000000e+01 2.746875000000e+01 4.754483757618e-09 4.662665357470e-01
    1.559033989906e-06 5.055841756985e-04 5.885958671570e-06 5.153660049438e+03
    3.312000000000e+05 0.000000000000e+00 2.268958050410e+00 8.009374141693e-08
    9.596852465140e-01 2.663750000000e+02 1.574523646030e+00-8.295345534438e-09
    2.407243128482e-10 1.000000000000e+00 2.164000000000e+03 0.000000000000e+00
    2.400000000000e+00 6.300000000000e+01-5.587935447693e-09 2.300000000000e+01
    3.240000000000e+05 4.000000000000e+00
29 21  6 30 20  0  0.0-3.727674484253e-04-6.139089236967e-12 0.000000000000e+00
    3.900000000000e+01 2.293750000000e+01 3.909805716245e-09-6.706428008846e-01
    8.605420589447e-07 1.952859922312e-03 9.262934327126e-06 5.153617794037e+03
    3.312000000000e+05 1.490116119385e-08 1.235014261496e+00-1.303851604462e-08
    9.836631848114e-01 2.144687500000e+02 2.204775913652e+00-7.779609766259e-09
   -1.000041655749e-11 1.000000000000e+00 2.164000000000e+03 0.000000000000e+00
    2.400000000000e+00 0.000000000000e+00-9.778887033463e-09 3.900000000000e+01
    3.240000000000e+05 4.000000000000e+00
31 21  6 30 20  0  0.0-1.260479912162e-04-2.160049916711e-12 0.000000000000e+00
    2.900000000000e+01 4.225000000000e+01 4.679480633437e-09 2.159466422216e+00
    2.168118953705e-06 1.002593955491e-02 8.426606655121e-06 5.153558374405e+03
    3.312000000000e+05-1.043081283569e-07-9.070379876701e-01 5.401670932770e-08
    9.556469416167e-01 2.186562500000e+02 2.667096420986e-01-8.088551206339e-09
    1.253623647028e-10 1.000000000000e+00 2.164000000000e+03 0.000000000000e+00
    2.400000000000e+00 0.000000000000e+00-1.303851604462e-08 2.900000000000e+01
    3.240000000000e+05 4.000000000000e+00
20 21  6 30 20  0  0.0 5.206475034356e-04-3.410605131648e-13 0.000000000000e+00
    2.000000000000e+01-4.490625000000e+01 5.334865075687e-09-2.129475227911e+00
   -2.240762114525e-06 6.087992223911e-03 4.390254616737e-06 5.151747129440e+03
    3.312000000000e+05-8.009374141693e-08 3.109892133136e+00-2.123415470123e-07
    9.389953043749e-01 2.806250000000e+02 3.041588593345e+00-8.597858135302e-09
   -6.393123442110e-11 1.000000000000e+00 2.164000000000e+03 0.000000000000e+00
    2.400000000000e+00 0.000000000000e+00-8.381903171539e-09 2.000000000000e+01
    3.240000000000e+05 4.000000000000e+00
